BEESAT-4                
1 41619U 16040W   23065.10278110  .00078853  00000+0  16875-2 0  9997
2 41619  97.1772 114.9131 0005945 242.5916 117.4729 15.44496123360883
RAVAN                   
1 41849U 16067B   23065.35914868  .00019269  00000+0  13981-2 0  9996
2 41849  98.0210 215.7228 0017186 173.4431 186.7022 15.03835499345309
CELTEE 1                
1 41850U 16067C   23065.35950116  .00010672  00000+0  85450-3 0  9994
2 41850  98.0367 209.8027 0004924 206.2055 153.8920 15.00345430344992
OPTICUBE 04             
1 41851U 16067D   23065.36566521  .00006027  00000+0  50230-3 0  9996
2 41851  98.0290 208.4273 0007399 184.3077 175.8083 14.98992424344929
AEROCUBE 8D             
1 41852U 16067E   23065.35111126  .00012986  00000+0  10342-2 0  9993
2 41852  98.0348 208.7511 0004489 202.2661 157.8367 15.00502470344936
AEROCUBE 8C             
1 41853U 16067F   23065.33735648  .00012841  00000+0  10239-2 0  9998
2 41853  98.0244 208.5036 0007287 147.8143 212.3526 15.00444206344925
PROMETHEUS 2-1          
1 41854U 16067G   23064.87791553  .00020440  00000+0  15121-2 0  9993
2 41854  98.0514 210.2197 0018230 203.5384 156.5008 15.03076273344956
PROMETHEUS 2-3          
1 41855U 16067H   23064.93638500  .00019808  00000+0  14678-2 0  9995
2 41855  98.0441 210.2512 0015444 211.4410 148.5892 15.03058293344964
INS-1B                  
1 41954U 17008G   23064.89752208  .00070626  00000+0  15482-2 0  9997
2 41954  97.2183 125.4362 0004988  26.2329 333.9172 15.43823493336878
DIDO-2                  
1 42000U 17008BE  23064.89383381  .00036125  00000+0  10671-2 0  9993
2 42000  97.2188 122.8583 0007282  55.7151 304.4782 15.34839768336065
PEASSS                  
1 42015U 17008BV  23064.74323207  .00053978  00000+0  12589-2 0  9999
2 42015  97.2251 128.5277 0004127  48.8241 311.3362 15.42048251336860
AL-FARABI 1             
1 42016U 17008BW  23065.18665706  .00109724  00000+0  18536-2 0  9991
2 42016  97.2311 134.0758 0001924  40.8066 319.3331 15.51223463337330
NAYIF-1 (EO-88)         
1 42017U 17008BX  23065.74058319  .00096379  00000+0  15949-2 0  9996
2 42017  97.2290 134.7141 0002274  35.6162 324.5242 15.51854794337457
UCLSAT                  
1 42765U 17036A   23064.90501115  .00061072  00000+0  14946-2 0  9999
2 42765  97.1609 105.2555 0009326 106.2033 254.0241 15.40523449317923
LITUANICASAT-2          
1 42768U 17036D   23065.08894106  .00399796  00000+0  28712-2 0  9990
2 42768  97.1608 113.1727 0003846  91.7828 268.3877 15.72473832317675
AALTO-1                 
1 42775U 17036L   23064.84418926  .00029126  00000+0  96454-3 0  9999
2 42775  97.1671  98.0899 0012878 114.1385 246.1205 15.31180506316684
URSA MAIOR              
1 42776U 17036M   23065.07961634  .00034103  00000+0  10846-2 0  9996
2 42776  97.1681  99.3992 0012405 111.5147 248.7419 15.32453448316771
COMPASS 2               
1 42777U 17036N   23065.10391156  .00125156  00000+0  21024-2 0  9996
2 42777  97.1654 109.7485 0007483  92.4653 267.7457 15.51299632317389
DIAMOND RED             
1 42783U 17036U   23064.84452866  .00035141  00000+0  10452-2 0  9996
2 42783  97.1671 102.1055 0010604 114.6652 245.5697 15.34598538316916
PEGASUS                 
1 42784U 17036V   23065.10693333  .00051663  00000+0  13536-2 0  9996
2 42784  97.1648 104.3209 0010008 108.6720 251.5613 15.38473522317086
DIAMOND GREEN           
1 42785U 17036W   23064.82946087  .00040183  00000+0  11783-2 0  9999
2 42785  97.1671 102.1922 0010568 116.4114 243.8215 15.35018079316985
DIAMOND BLUE            
1 42786U 17036X   23065.09497079  .00039759  00000+0  11712-2 0  9991
2 42786  97.1671 102.4318 0010620 114.4878 245.7474 15.34876238316944
NUDTSAT                 
1 42787U 17036Y   23065.90092897  .00153047  00000+0  22316-2 0  9990
2 42787  97.1624 112.4299 0006012  98.7716 261.4234 15.55143980317503
SUCHAI                  
1 42788U 17036Z   23065.09094374  .00072648  00000+0  16211-2 0  9997
2 42788  97.1631 106.9971 0008779 103.6722 256.5504 15.43258162317323
SKCUBE                  
1 42789U 17036AA  23064.84759219  .00059973  00000+0  14526-2 0  9999
2 42789  97.1641 105.7377 0009133 105.7595 254.4660 15.40844362317148
VZLUSAT-1               
1 42790U 17036AB  23064.86868644  .00143281  00000+0  21782-2 0  9994
2 42790  97.1611 111.2460 0006169  97.2632 262.9324 15.54029343317482
ROBUSTA 1B              
1 42792U 17036AD  23065.11006478  .00068666  00000+0  15696-2 0  9994
2 42792  97.1630 106.8823 0008458 104.3948 255.8239 15.42557603317254
CICERO 6                
1 42793U 17036AE  23064.40152090  .00031542  00000+0  96712-3 0  9990
2 42793  97.1659 102.0266 0009556 115.7691 244.4540 15.33667678316966
CORVUS BC2              
1 42846U 17042X   23065.14703896  .00005537  00000+0  52380-3 0  9992
2 42846  97.3958 272.3403 0008604 190.9218 169.1817 14.94001623307335
CORVUS BC1              
1 42847U 17042Y   23065.07770095  .00005174  00000+0  48872-3 0  9998
2 42847  97.3960 272.6187 0008383 189.4888 170.6176 14.94095474307333
MIRATA                  
1 43015U 17073C   23064.94748936  .00027673  00000+0  18217-2 0  9991
2 43015  97.6484 315.8858 0222822  38.6661 323.0274 14.89330750286107
MAKERSAT 0              
1 43016U 17073D   23065.45463279  .00019785  00000+0  13687-2 0  9994
2 43016  97.6484 315.0878 0235008  44.3577 317.6202 14.85960722286038
CORVUS BC3              
1 43118U 18004H   23065.16823678  .00034768  00000+0  10674-2 0  9994
2 43118  97.3337 139.9365 0008854 150.0715 210.1036 15.33614940286220
MICROMAS-2A             
1 43131U 18004W   23065.53248651  .00333993  00000+0  26482-2 0  9998
2 43131  97.3403 153.7554 0002419 211.9018 148.2098 15.70288373287067
CICERO 7                
1 43143U 18004AJ  23065.44904112  .00059318  00000+0  12577-2 0  9998
2 43143  97.3498 150.1495 0005473 139.6438 220.5218 15.44857662286841
GOMX-4B                 
1 43196U 18015E   23065.38281734  .00032413  00000+0  10311-2 0  9990
2 43196  97.5626 213.5754 0015502 209.9288 150.1068 15.32417483283189
GOMX-4A                 
1 43197U 18015F   23065.72702729  .00029490  00000+0  86550-3 0  9991
2 43197  97.5622 215.5493 0015671 206.5040 211.1889 15.34993035283356
AEROCUBE 12A            
1 43556U 18046C   23064.91651047  .00154371  00000+0  17669-2 0  9991
2 43556  51.6299 335.4833 0005362 218.4634 141.5978 15.61093422259778
AEROCUBE 12B            
1 43557U 18046D   23065.81477485  .00083448  00000+0  13179-2 0  9992
2 43557  51.6349 342.8874 0004682 227.6132 132.4462 15.52760988259709
CUBEBEL-1 (BSUSAT-1)    
1 43666U 18083E   23065.86996819  .00037287  00000+0  12300-2 0  9991
2 43666  97.3958  97.2943 0012736 122.8182   3.3557 15.31258132241501
CICERO 10               
1 43690U 18088A   23065.24322352  .00036190  00000+0  11818-2 0  9995
2 43690  85.0356 141.9384 0010362 251.4959 108.5162 15.31547674239693
PROXIMA I               
1 43694U 18088E   23065.16571676  .00036387  00000+0  11111-2 0  9999
2 43694  85.0289 137.9845 0014187 215.3189 144.7121 15.33644677239951
PROXIMA II              
1 43696U 18088G   23064.91182077  .00035093  00000+0  10749-2 0  9995
2 43696  85.0290 138.1912 0014253 216.4335 143.5944 15.33549593239919
FACSAT-1                
1 43721U 18096C   23065.71713156  .00136735  00000+0  17990-2 0  9990
2 43721  97.3215 152.6676 0010800 188.0946 329.3713 15.57940234238421
CENTAURI-2              
1 43722U 18096D   23065.31621229  .00736109  21300-3  26979-2 0  9994
2 43722  97.3209 157.5796 0008269 239.3958 120.6499 15.88287197238677
SIRION PATHFINDER-2     
1 43759U 18099B   23065.14509032  .00007497  00000+0  64099-3 0  9992
2 43759  97.5875 129.7733 0014996 101.3417 258.9491 14.97820890232192
CORVUS BC4              
1 43767U 18099K   23065.13631598  .00007646  00000+0  66404-3 0  9991
2 43767  97.5824 127.8793 0012717 107.2844 252.9770 14.97227852232102
MOVE-II                 
1 43780U 18099Y   23064.75367178  .00017821  00000+0  13889-2 0  9997
2 43780  97.5858 131.0947 0012689 135.8041 224.4199 15.01187936232200
SPACEBEE-7              
1 43816U 18099BL  23065.13276593  .00016597  00000+0  13172-2 0  9994
2 43816  97.5962 132.1083 0015635  86.9888 273.3125 15.00475387231848
SPACEBEE-5              
1 43817U 18099BM  23065.18039878  .00056982  00000+0  35144-2 0  9998
2 43817  97.6042 137.5125 0004778  97.2424 262.9348 15.09695331232116
SPACEBEE-6              
1 43818U 18099BN  23064.69247094  .00021530  00000+0  16025-2 0  9993
2 43818  97.6010 133.3281 0014046 106.5590 253.7179 15.02880216232005
SHIELDS 1               
1 43850U 18104B   23064.91566994  .00014012  00000+0  53428-3 0  9990
2 43850  85.0243 238.4071 0014329  27.2608 332.9385 15.26466297234340
STF-1                   
1 43852U 18104D   23065.51040002  .00049560  00000+0  14389-2 0  9994
2 43852  85.0243 237.0286 0012010  26.0198 334.1653 15.35223925234601
ZACUBE-2                
1 43907U 18111AH  23065.79479477  .00033516  00000+0  99481-3 0  9996
2 43907  97.1572 308.1257 0015151 220.2482 204.5964 15.34614575233419
LUME 1                  
1 43908U 18111AJ  23065.09998408  .00045550  00000+0  11685-2 0  9990
2 43908  97.1576 310.2875 0013442 207.6333 152.4200 15.39111039233493
AOBA VELOX-IV           
1 43940U 19003J   23065.65786392  .00506919  00000+0  27998-2 0  9991
2 43940  97.0816 102.1747 0006503 246.2917 113.7668 15.78252730230681
MOVE-IIB                
1 44398U 19038N   23064.93202338  .00064765  00000+0  22273-2 0  9999
2 44398  97.6570  43.6873 0013480 306.7250  53.2750 15.29753811202822
SONATE                  
1 44400U 19038Q   23065.21311368  .00020895  00000+0  10063-2 0  9999
2 44400  97.6743  40.9888 0020019 314.5466  45.4132 15.18599172202593
LUCKY-7                 
1 44406U 19038W   23065.45840715  .00027170  00000+0  12366-2 0  9995
2 44406  97.6722  42.1723 0018126 310.2895  49.6755 15.20529562202690
